STARLINK-11427 [DTC]    
1 62063U 24217G   25170.81612175  .00181972  00000+0  14686-2 0  9993
2 62063  53.1568 287.3185 0000637 347.2130  12.8871 15.69800861 33880
STARLINK-11456 [DTC]    
1 62064U 24217H   25170.85036039  .00120901  00000+0  98748-3 0  9994
2 62064  53.1573 286.8124 0001299  56.7825 303.3318 15.69730029 33895
STARLINK-11474 [DTC]    
1 62065U 24217J   25170.38995518  .00239829  00000+0  19241-2 0  9999
2 62065  53.1566 288.9103 0000492  16.0828 344.0205 15.69754967 33821
STARLINK-11463 [DTC]    
1 62066U 24217K   25170.92384067  .00186224  00000+0  15020-2 0  9992
2 62066  53.1562 286.5628 0001106 352.6286   7.4716 15.69801509 33905
STARLINK-11472 [DTC]    
1 62067U 24217L   25170.89450907  .00196027  00000+0  15780-2 0  9991
2 62067  53.1561 287.1013 0001173   0.0979   0.0039 15.69815905 33820
STARLINK-11467 [DTC]    
1 62068U 24217M   25170.91893269  .00132680  00000+0  10809-2 0  9999
2 62068  53.1552 286.5278 0000773 128.5752 231.5335 15.69747370 33906
STARLINK-11460 [DTC]    
1 62069U 24217N   25170.69857990  .00202088  00000+0  16297-2 0  9993
2 62069  53.1559 288.0111 0001758   8.5117 351.5930 15.69752593 33809
STARLINK-32604          
1 62070U 24217P   25170.18397040  .00023777  00000+0  81243-3 0  9994
2 62070  53.1602 338.1264 0001172  91.6454 268.4681 15.30195958 33075
STARLINK-32553          
1 62071U 24217Q   25170.44417496  .00013572  00000+0  46937-3 0  9995
2 62071  53.1595 336.9108 0001389  82.7270 277.3888 15.30209252 33168
STARLINK-32603          
1 62072U 24217R   25170.82445886  .00020651  00000+0  70657-3 0  9994
2 62072  53.1601 335.0147 0001913  83.1274 276.9944 15.30239146 33222
STARLINK-32444          
1 62073U 24217S   25170.94875797  .00015564  00000+0  53651-3 0  9998
2 62073  53.1580 334.3886 0001377 107.4479 252.6672 15.30200236 33195
STARLINK-32619          
1 62074U 24217T   25170.18819510  .00022183  00000+0  75883-3 0  9992
2 62074  53.1611 338.1508 0001119  79.3662 280.7465 15.30200761 33071
STARLINK-32580          
1 62075U 24217U   25170.47085009  .00039286  00000+0  98606-3 0  9993
2 62075  53.1587 331.3944 0002034  85.9988 274.1249 15.39650671 33192
STARLINK-32617          
1 62076U 24217V   25170.47549396  .00049855  00000+0  12467-2 0  9991
2 62076  53.1583 331.4245 0002710  87.3980 272.7335 15.39655097 33190
STARLINK-11384 [DTC]    
1 62088U 24220A   25170.42165150  .00169865  00000+0  12981-2 0  9990
2 62088  43.0037 190.3518 0002444 276.0792  83.9797 15.70881355 33649
STARLINK-11379 [DTC]    
1 62089U 24220B   25170.41634072  .00172331  00000+0  13154-2 0  9999
2 62089  43.0000 190.3084 0003978 300.0750  59.9723 15.70896476 33544
STARLINK-11387 [DTC]    
1 62090U 24220C   25170.41103079  .00193028  00000+0  14687-2 0  9997
2 62090  43.0006 190.2663 0003902 292.3448  67.7006 15.70906668 33645
STARLINK-11389 [DTC]    
1 62091U 24220D   25170.40572229  .00168043  00000+0  12843-2 0  9995
2 62091  43.0016 190.2221 0002730 268.8836  91.1719 15.70884335 33541
STARLINK-11388 [DTC]    
1 62092U 24220E   25170.40041429  .00052125  00000+0  40681-3 0  9994
2 62092  43.0007 190.1803 0001667 269.9348  90.1328 15.70860704 33544
STARLINK-11345 [DTC]    
1 62093U 24220F   25170.07719004  .00227795  00000+0  17266-2 0  9998
2 62093  43.0002 192.0543 0001412 255.3906 104.6805 15.70894354 33492
STARLINK-11381 [DTC]    
1 62094U 24220G   25170.32621401  .00150859  00000+0  11560-2 0  9997
2 62094  43.0019 190.4790 0001693 259.4919 100.5758 15.70880128 33538
STARLINK-11369 [DTC]    
1 62095U 24220H   25170.13014817  .00210610  00000+0  15902-2 0  9990
2 62095  43.0008 191.5871 0005039 288.6728  71.3593 15.71029513 33603
STARLINK-11303 [DTC]    
1 62096U 24220J   25170.37917999  .00193249  00000+0  14722-2 0  9997
2 62096  43.0001 190.0096 0001538 276.4566  83.6127 15.70881653 33648
STARLINK-11367 [DTC]    
1 62097U 24220K   25170.43745361  .00224119  00000+0  16999-2 0  9996
2 62097  43.0007 189.5837 0001390 260.5195  99.5515 15.70889464 33655
STARLINK-11386 [DTC]    
1 62098U 24220L   25170.11422822  .00171797  00000+0  13144-2 0  9998
2 62098  43.0001 191.4581 0003962 293.6487  66.3964 15.70842436 33508
STARLINK-11380 [DTC]    
1 62099U 24220M   25170.10891859  .00115457  00000+0  89022-3 0  9998
2 62099  43.0007 191.4151 0002402 280.5773  79.4824 15.70854850 33502
STARLINK-33566          
1 62100U 24220N   25170.91668981 -.00170225  00000+0 -61428-2 0  9993
2 62100  43.0008 234.8564 0001351 278.8504  58.1717 15.28504960 33164
STARLINK-33545          
1 62101U 24220P   25170.50615536  .00015836  00000+0  58329-3 0  9998
2 62101  43.0007 251.6137 0001371 279.0000  81.0696 15.27606714 32779
STARLINK-33562          
1 62102U 24220Q   25170.51771823  .00013092  00000+0  48436-3 0  9992
2 62102  42.9990 251.6946 0001640 276.1562  83.9103 15.27583234 32772
STARLINK-33554          
1 62103U 24220R   25170.56768185  .00015911  00000+0  58617-3 0  9999
2 62103  42.9986 251.2165 0001511 278.6174  81.4507 15.27595748 32718
STARLINK-33555          
1 62104U 24220S   25170.53570537  .00014135  00000+0  52206-3 0  9994
2 62104  43.0009 251.8287 0000961 275.8535  84.2207 15.27587716 32912
STARLINK-33542          
1 62105U 24220T   25170.92375522  .00095406  12955-4  10000-3 0  9998
2 62105  42.9303 158.6052 0005485  41.0141  50.3316 16.09851101 34037
STARLINK-33557          
1 62106U 24220U   25170.93528913  .00109366  14088-4  12995-3 0  9999
2 62106  42.9530 171.2757 0001678 290.6464 155.0514 16.07900132 33717
STARLINK-33559          
1 62107U 24220V   25170.66262197  .00012790  00000+0  47327-3 0  9994
2 62107  42.9993 251.0629 0001433 274.0697  85.9991 15.27594147 32961
STARLINK-33553          
1 62108U 24220W   25170.52413745  .00016156  00000+0  59504-3 0  9997
2 62108  43.0010 251.7442 0002075 279.1614  80.9002 15.27595061 32944
STARLINK-33556          
1 62109U 24220X   25170.51000632  .00016394  00000+0  60367-3 0  9997
2 62109  42.9980 251.6389 0000963 265.4062  94.6680 15.27593776 32964
STARLINK-33551          
1 62110U 24220Y   25170.52799524  .00014000  00000+0  51712-3 0  9991
2 62110  43.0009 251.7728 0000905 266.0610  94.0138 15.27591138 32940
STARLINK-32311          
1 62114U 24222A   25170.38370272  .00034069  00000+0  81870-3 0  9991
2 62114  43.0030 169.8868 0002217 282.7584  77.3025 15.40717467 32797
STARLINK-32470          
1 62115U 24222B   25170.39549311  .00019451  00000+0  71398-3 0  9997
2 62115  42.9975 182.9495 0001498 276.2107  83.8574 15.27603391 32634
STARLINK-32502          
1 62116U 24222C   25170.41733891  .00017843  00000+0  65574-3 0  9991
2 62116  43.0056 183.1196 0002443 300.5237  59.5374 15.27610429 32542
STARLINK-32521          
1 62117U 24222D   25170.07674012  .00017794  00000+0  65445-3 0  9995
2 62117  42.9991 181.2814 0001299 270.3090  89.7613 15.27586616 32477
STARLINK-32549          
1 62118U 24222E   25170.38136122  .00014973  00000+0  55230-3 0  9992
2 62118  43.0001 182.8438 0001304 281.5080  78.5625 15.27594260 32542
STARLINK-32535          
1 62119U 24222F   25170.36014503  .00024269  00000+0  88801-3 0  9998
2 62119  43.0011 180.0863 0002017 270.8319  89.2302 15.27599559 32529
STARLINK-32548          
1 62120U 24222G   25170.30070088  .00027226  00000+0  99469-3 0  9992
2 62120  43.0017 183.9622 0001717 276.7280  83.3376 15.27598325 32470
STARLINK-32525          
1 62121U 24222H   25170.38778626  .00007009  00000+0  26392-3 0  9996
2 62121  42.9984 182.8892 0001417 271.4054  88.6636 15.27587136 32483
STARLINK-32628          
1 62122U 24222J   25170.40577153  .00018000  00000+0  66163-3 0  9995
2 62122  43.0000 183.0255 0001483 275.5149  84.5534 15.27600411 32657
STARLINK-32626          
1 62123U 24222K   25170.42504675  .00014644  00000+0  54033-3 0  9990
2 62123  43.0028 183.1746 0002181 283.1839  76.8769 15.27598083 32487
STARLINK-32608          
1 62124U 24222L   25170.39934849  .00012687  00000+0  46959-3 0  9990
2 62124  42.9989 182.9767 0001356 275.5765  84.4931 15.27593176 32471
STARLINK-32488          
1 62125U 24222M   25170.36996145  .00016180  00000+0  59601-3 0  9995
2 62125  43.0012 183.6179 0001455 276.3994  83.6691 15.27591031 32370
STARLINK-32490          
1 62126U 24222N   25170.31856810  .00036735  00000+0  13384-2 0  9990
2 62126  43.0010 183.2314 0001358 241.2601 118.8115 15.27565013 32478
STARLINK-32557          
1 62127U 24222P   25170.40335285  .00011709  00000+0  43431-3 0  9990
2 62127  43.0010 172.4773 0001569 270.3299  89.7373 15.27583569 32656
STARLINK-32568          
1 62128U 24222Q   25170.42117934  .00041505  00000+0  15068-2 0  9993
2 62128  43.0033 183.1470 0002116 294.7406  65.3226 15.27634220 32225
STARLINK-32462          
1 62129U 24222R   25170.35371999  .00019796  00000+0  72646-3 0  9992
2 62129  43.0015 180.0346 0002222 274.8994  85.1604 15.27601618 32510
STARLINK-32463          
1 62130U 24222S   25170.39163851  .00022637  00000+0  82928-3 0  9996
2 62130  42.9974 182.9166 0001555 271.5241  88.5433 15.27592752 32483
STARLINK-32550          
1 62131U 24222T   25170.03530013  .00015218  00000+0  56116-3 0  9993
2 62131  43.0008 185.4066 0001761 275.4123  84.6528 15.27593480 32472
STARLINK-32507          
1 62132U 24222U   25170.11596036  .00027996  00000+0  10225-2 0  9996
2 62132  42.9996 184.2885 0001865 273.4315  86.6323 15.27596336 32297
STARLINK-32245          
1 62133U 24222V   25170.41348105  .00012012  00000+0  44512-3 0  9992
2 62133  43.0003 183.0819 0001632 266.0487  94.0178 15.27593963 32646
STARLINK-32546          
1 62134U 24222W   25170.35757531  .00009660  00000+0  36000-3 0  9991
2 62134  43.0010 180.0644 0001646 264.1364  95.9300 15.27587796 32404
STARLINK-32545          
1 62135U 24222X   25170.04686604  .00015496  00000+0  57119-3 0  9998
2 62135  43.0012 185.4894 0001836 269.0938  90.9703 15.27594020 32472
